{"fetched_at":"2026-03-29T16:36:15Z","count":15609,"tles":[{"name":"STARLINK-32154","line1":"1 60276U 24131X   26087.89794440  .00000922  00000+0  43278-4 0  9990","line2":"2 60276  53.1612 322.9109 0001161 101.4673 258.6458 15.30188567 94665","category":"Starlink"}]}