{
  "norad_id": 60276,
  "name": "STARLINK-32154",
  "history": [
    {
      "epoch": "2026-03-28T21:33:02.396160Z",
      "apogee_km": 476.04488464763654,
      "perigee_km": 474.4535283704845,
      "latitude_deg": -1.2674725627130352e-05,
      "longitude_deg": 173.33911624464432,
      "height_km": 476.30577259669883,
      "semi_major_axis_km": 6853.38620650906,
      "eccentricity": 0.0001161,
      "inclination_deg": 53.1612,
      "raan_deg": 322.9109,
      "arg_perigee_deg": 101.4673,
      "mean_anomaly_deg": 258.6458,
      "mean_motion_rev_day": 15.30188567
    }
  ]
}